{
  "type": "FeatureCollection",
  "features": [
    {
      "type": "Feature",
      "properties": {
        "norad_id": 66638,
        "name": "STARLINK-35972",
        "group": "last-30-days",
        "lat": 31.43547877901942,
        "lon": -61.371306059638314,
        "alt_km": 442.6545577277375,
        "timestamp": "2025-12-21T09:37:21.370778+00:00",
        "meta_object_name": "STARLINK-35972",
        "meta_object_id": "2025-271X",
        "meta_epoch": "2025-12-21T04:00:01.998720",
        "meta_mean_motion": 15.39613073,
        "meta_eccentricity": 0.0001235,
        "meta_inclination": 53.1597,
        "meta_ra_of_asc_node": 147.0084,
        "meta_arg_of_pericenter": 106.5277,
        "meta_mean_anomaly": 173.6122,
        "meta_ephemeris_type": 0,
        "meta_classification_type": "U",
        "meta_norad_cat_id": 66638,
        "meta_element_set_no": 999,
        "meta_rev_at_epoch": 559,
        "meta_bstar": 0.00017737,
        "meta_mean_motion_dot": 6.7e-05,
        "meta_mean_motion_ddot": 0,
        "tle_line1": "1 66638U 25271X   25355.16668980  .00006700  00000+0  17737-3 0  9990",
        "tle_line2": "2 66638  53.1597 147.0084 0001235 106.5277 173.6122 15.39613073  5593"
      },
      "geometry": {
        "type": "Point",
        "coordinates": [
          -61.371306059638314,
          31.43547877901942
        ]
      }
    },
    {
      "type": "Feature",
      "properties": {
        "norad_id": 66639,
        "name": "STARLINK-35908",
        "group": "last-30-days",
        "lat": 11.78959097203382,
        "lon": -43.15019409190142,
        "alt_km": 446.45495223952094,
        "timestamp": "2025-12-21T09:37:21.370788+00:00",
        "meta_object_name": "STARLINK-35908",
        "meta_object_id": "2025-271Y",
        "meta_epoch": "2025-12-21T04:00:01.998720",
        "meta_mean_motion": 15.39609432,
        "meta_eccentricity": 0.000145,
        "meta_inclination": 53.1601,
        "meta_ra_of_asc_node": 146.9566,
        "meta_arg_of_pericenter": 76.1422,
        "meta_mean_anomaly": 229.8525,
        "meta_ephemeris_type": 0,
        "meta_classification_type": "U",
        "meta_norad_cat_id": 66639,
        "meta_element_set_no": 999,
        "meta_rev_at_epoch": 559,
        "meta_bstar": 0.0003318,
        "meta_mean_motion_dot": 0.0001289,
        "meta_mean_motion_ddot": 0,
        "tle_line1": "1 66639U 25271Y   25355.16668980  .00012890  00000+0  33180-3 0  9998",
        "tle_line2": "2 66639  53.1601 146.9566 0001450  76.1422 229.8525 15.39609432  5591"
      },
      "geometry": {
        "type": "Point",
        "coordinates": [
          -43.15019409190142,
          11.78959097203382
        ]
      }
    },
    {
      "type": "Feature",
      "properties": {
        "norad_id": 66640,
        "name": "STARLINK-35921",
        "group": "last-30-days",
        "lat": 47.13663120667313,
        "lon": -87.93183646305845,
        "alt_km": 440.3578835540011,
        "timestamp": "2025-12-21T09:37:21.370798+00:00",
        "meta_object_name": "STARLINK-35921",
        "meta_object_id": "2025-271Z",
        "meta_epoch": "2025-12-21T04:00:01.998720",
        "meta_mean_motion": 15.39611172,
        "meta_eccentricity": 8.88e-05,
        "meta_inclination": 53.1591,
        "meta_ra_of_asc_node": 147.0589,
        "meta_arg_of_pericenter": 96.2666,
        "meta_mean_anomaly": 158.2307,
        "meta_ephemeris_type": 0,
        "meta_classification_type": "U",
        "meta_norad_cat_id": 66640,
        "meta_element_set_no": 999,
        "meta_rev_at_epoch": 559,
        "meta_bstar": 0.00019047,
        "meta_mean_motion_dot": 7.224e-05,
        "meta_mean_motion_ddot": 0,
        "tle_line1": "1 66640U 25271Z   25355.16668980  .00007224  00000+0  19047-3 0  9991",
        "tle_line2": "2 66640  53.1591 147.0589 0000888  96.2666 158.2307 15.39611172  5592"
      },
      "geometry": {
        "type": "Point",
        "coordinates": [
          -87.93183646305845,
          47.13663120667313
        ]
      }
    },
    {
      "type": "Feature",
      "properties": {
        "norad_id": 66641,
        "name": "STARLINK-35923",
        "group": "last-30-days",
        "lat": -25.20442662617887,
        "lon": -13.580459942422019,
        "alt_km": 433.96002990041234,
        "timestamp": "2025-12-21T09:37:21.370809+00:00",
        "meta_object_name": "STARLINK-35923",
        "meta_object_id": "2025-271AA",
        "meta_epoch": "2025-12-21T04:00:01.998720",
        "meta_mean_motion": 15.45536359,
        "meta_eccentricity": 0.0001176,
        "meta_inclination": 53.1605,
        "meta_ra_of_asc_node": 146.8715,
        "meta_arg_of_pericenter": 62.6183,
        "meta_mean_anomaly": 285.3369,
        "meta_ephemeris_type": 0,
        "meta_classification_type": "U",
        "meta_norad_cat_id": 66641,
        "meta_element_set_no": 999,
        "meta_rev_at_epoch": 559,
        "meta_bstar": 0.0004635,
        "meta_mean_motion_dot": 0.00022249,
        "meta_mean_motion_ddot": 0,
        "tle_line1": "1 66641U 25271AA  25355.16668980  .00022249  00000+0  46350-3 0  9993",
        "tle_line2": "2 66641  53.1605 146.8715 0001176  62.6183 285.3369 15.45536359  5599"
      },
      "geometry": {
        "type": "Point",
        "coordinates": [
          -13.580459942422019,
          -25.20442662617887
        ]
      }
    },
    {
      "type": "Feature",
      "properties": {
        "norad_id": 66642,
        "name": "STARLINK-35926",
        "group": "last-30-days",
        "lat": -30.522875830820706,
        "lon": -8.023473802570061,
        "alt_km": 429.75386965293455,
        "timestamp": "2025-12-21T09:37:21.370819+00:00",
        "meta_object_name": "STARLINK-35926",
        "meta_object_id": "2025-271AB",
        "meta_epoch": "2025-12-19T17:55:19.162848",
        "meta_mean_motion": 15.47687763,
        "meta_eccentricity": 0.0001998,
        "meta_inclination": 53.1589,
        "meta_ra_of_asc_node": 153.6296,
        "meta_arg_of_pericenter": 136.7356,
        "meta_mean_anomaly": 223.381,
        "meta_ephemeris_type": 0,
        "meta_classification_type": "U",
        "meta_norad_cat_id": 66642,
        "meta_element_set_no": 999,
        "meta_rev_at_epoch": 525,
        "meta_bstar": -0.0052165,
        "meta_mean_motion_dot": -0.0026545,
        "meta_mean_motion_ddot": 0,
        "tle_line1": "1 66642U 25271AB  25353.74674957 -.00265450  00000+0 -52165-2 0  9992",
        "tle_line2": "2 66642  53.1589 153.6296 0001998 136.7356 223.3810 15.47687763  5252"
      },
      "geometry": {
        "type": "Point",
        "coordinates": [
          -8.023473802570061,
          -30.522875830820706
        ]
      }
    },
    {
      "type": "Feature",
      "properties": {
        "norad_id": 66643,
        "name": "STARLINK-35918",
        "group": "last-30-days",
        "lat": -8.776128067615574,
        "lon": -27.552269743675133,
        "alt_km": 449.19395602005716,
        "timestamp": "2025-12-21T09:37:21.370836+00:00",
        "meta_object_name": "STARLINK-35918",
        "meta_object_id": "2025-271AC",
        "meta_epoch": "2025-12-21T04:00:01.998720",
        "meta_mean_motion": 15.40009574,
        "meta_eccentricity": 0.0001495,
        "meta_inclination": 53.1601,
        "meta_ra_of_asc_node": 146.9058,
        "meta_arg_of_pericenter": 87.4709,
        "meta_mean_anomaly": 244.0978,
        "meta_ephemeris_type": 0,
        "meta_classification_type": "U",
        "meta_norad_cat_id": 66643,
        "meta_element_set_no": 999,
        "meta_rev_at_epoch": 559,
        "meta_bstar": -0.015989,
        "meta_mean_motion_dot": -0.00599691,
        "meta_mean_motion_ddot": 0,
        "tle_line1": "1 66643U 25271AC  25355.16668980 -.00599691  00000+0 -15989-1 0  9999",
        "tle_line2": "2 66643  53.1601 146.9058 0001495  87.4709 244.0978 15.40009574  5598"
      },
      "geometry": {
        "type": "Point",
        "coordinates": [
          -27.552269743675133,
          -8.776128067615574
        ]
      }
    },
    {
      "type": "Feature",
      "properties": {
        "norad_id": 66644,
        "name": "STARLINK-35938",
        "group": "last-30-days",
        "lat": -40.27410992021527,
        "lon": 5.150242166621023,
        "alt_km": 422.2209330661044,
        "timestamp": "2025-12-21T09:37:21.370846+00:00",
        "meta_object_name": "STARLINK-35938",
        "meta_object_id": "2025-271AD",
        "meta_epoch": "2025-12-18T20:14:46.464576",
        "meta_mean_motion": 15.49333178,
        "meta_eccentricity": 5.997e-05,
        "meta_inclination": 53.1591,
        "meta_ra_of_asc_node": 157.9473,
        "meta_arg_of_pericenter": 93.6054,
        "meta_mean_anomaly": 266.5024,
        "meta_ephemeris_type": 0,
        "meta_classification_type": "U",
        "meta_norad_cat_id": 66644,
        "meta_element_set_no": 999,
        "meta_rev_at_epoch": 515,
        "meta_bstar": 0.0013201346,
        "meta_mean_motion_dot": 0.00073731,
        "meta_mean_motion_ddot": 0,
        "tle_line1": "1 66644U 25271AD  25352.84359334  .00073731  00000+0  13201-2 0  9998",
        "tle_line2": "2 66644  53.1591 157.9473 0000599  93.6054 266.5024 15.49333178  5158"
      },
      "geometry": {
        "type": "Point",
        "coordinates": [
          5.150242166621023,
          -40.27410992021527
        ]
      }
    }
  ]
}